NORAD_CAT_ID,OBJECT_NAME,OBJECT_TYPE,EPOCH,MEAN_MOTION,ECCENTRICITY,INCLINATION,RA_OF_ASC_NODE,ARG_OF_PERICENTER,MEAN_ANOMALY,BSTAR,MEAN_MOTION_DOT,MEAN_MOTION_DDOT,TLE_LINE0,TLE_LINE1,TLE_LINE2,SEMIMAJOR_AXIS,PERIOD,APOGEE,PERIGEE,DECAYED
55273.0,STARLINK-5291,PAYLOAD,2024-07-04 04:38:11,14.98334011,0.0003011,69.9998,151.1589,269.6051,90.4763,3.968e-05,3.81e-06,0.0,0 STARLINK-5291,1 55273U 23010E   24186.19318497  .00000381  00000-0  39680-4 0  9993,2 55273  69.9998 151.1589 0003011 269.6051  90.4763 14.98334011 80582,6950.18,96.107,574.138,569.953,0.0
55273.0,STARLINK-5291,PAYLOAD,2024-07-04 07:50:27,14.98336481,0.0003005,69.9998,150.8223,269.751,90.3305,6.4277e-05,6.74e-06,0.0,0 STARLINK-5291,1 55273U 23010E   24186.32670233  .00000674  00000-0  64277-4 0  9992,2 55273  69.9998 150.8223 0003005 269.7510  90.3305 14.98336481 80918,6950.173,96.107,574.126,569.949,0.0
55273.0,STARLINK-5291,PAYLOAD,2024-07-04 22:15:39,14.98332054,0.0002959,70.0001,149.3081,272.1335,87.9485,7.5551e-05,8.09e-06,0.0,0 STARLINK-5291,1 55273U 23010E   24186.92754405  .00000809  00000-0  75551-4 0  9999,2 55273  70.0001 149.3081 0002959 272.1335  87.9485 14.98332054 81005,6950.187,96.107,574.108,569.995,0.0
55273.0,STARLINK-5291,PAYLOAD,2024-07-05 04:40:11,14.9833416,0.0002928,70.0002,148.6347,272.0681,88.0142,9.7838e-05,1.075e-05,0.0,0 STARLINK-5291,1 55273U 23010E   24187.19458178  .00001075  00000-0  97838-4 0  9995,2 55273  70.0002 148.6347 0002928 272.0681  88.0142 14.98334160 80733,6950.18,96.107,574.08,570.01,0.0
55273.0,STARLINK-5291,PAYLOAD,2024-07-05 14:17:00,14.9833096,0.0002814,70.0005,147.6244,271.9763,88.1074,1.2211e-05,5.3e-07,0.0,0 STARLINK-5291,1 55273U 23010E   24187.59514506  .00000053  00000-0  12211-4 0  9994,2 55273  70.0005 147.6244 0002814 271.9763  88.1074 14.98330960 81105,6950.19,96.107,574.011,570.099,0.0
55273.0,STARLINK-5291,PAYLOAD,2024-07-05 20:41:33,14.98285842,0.0002941,70.0006,146.9519,265.3197,94.7626,0.000748,8.833e-05,0.0,0 STARLINK-5291,1 55273U 23010E   24187.86219448  .00008833  00000-0  74800-3 0  9996,2 55273  70.0006 146.9519 0002941 265.3197  94.7626 14.98285842 80835,6950.329,96.11,574.239,570.15,0.0
55273.0,STARLINK-5291,PAYLOAD,2024-07-05 22:17:40,14.98326692,0.0002698,70.0008,146.7836,267.8649,92.2201,6.1461e-05,6.4e-06,0.0,0 STARLINK-5291,1 55273U 23010E   24187.92894658  .00000640  00000-0  61461-4 0  9993,2 55273  70.0008 146.7836 0002698 267.8649  92.2201 14.98326692 81152,6950.203,96.107,573.943,570.193,0.0
55273.0,STARLINK-5291,PAYLOAD,2024-07-06 04:42:13,14.98327561,0.0002691,70.0007,146.1104,265.5843,94.5009,-1.89e-05,-3.18e-06,0.0,0 STARLINK-5291,1 55273U 23010E   24188.19598761 -.00000318  00000-0 -18900-4 0  9993,2 55273  70.0007 146.1104 0002691 265.5843  94.5009 14.98327561 80883,6950.2,96.107,573.936,570.195,0.0
55273.0,STARLINK-5291,PAYLOAD,2024-07-06 14:19:01,14.98329751,0.000269,70.0008,145.1005,268.1601,91.925,-2.3938e-05,-3.79e-06,0.0,0 STARLINK-5291,1 55273U 23010E   24188.59654629 -.00000379  00000-0 -23938-4 0  9997,2 55273  70.0008 145.1005 0002690 268.1601  91.9250 14.98329751 81257,6950.194,96.107,573.928,570.189,0.0
55273.0,STARLINK-5291,PAYLOAD,2024-07-06 22:19:41,14.9833299,0.0002768,70.0006,144.2589,267.3917,92.6925,1.4693e-06,-7.5e-07,0.0,0 STARLINK-5291,1 55273U 23010E   24188.93034324 -.00000075  00000-0  14693-5 0  9990,2 55273  70.0006 144.2589 0002768 267.3917  92.6925 14.98332990 81301,6950.184,96.107,573.972,570.125,0.0
55273.0,STARLINK-5291,PAYLOAD,2024-07-07 04:44:13,14.98332324,0.0002791,70.0005,143.5856,266.9571,93.1268,-6.0733e-06,-1.65e-06,0.0,0 STARLINK-5291,1 55273U 23010E   24189.19738338 -.00000165  00000-0 -60733-5 0  9992,2 55273  70.0005 143.5856 0002791 266.9571  93.1268 14.98332324 81033,6950.186,96.107,573.991,570.111,0.0
55273.0,STARLINK-5291,PAYLOAD,2024-07-07 06:20:21,14.98332472,0.0002788,70.0005,143.4173,267.0051,93.0789,-4.2097e-06,-1.43e-06,0.0,0 STARLINK-5291,1 55273U 23010E   24189.26414314 -.00000143  00000-0 -42097-5 0  9994,2 55273  70.0005 143.4173 0002788 267.0051  93.0789 14.98332472 81351,6950.185,96.107,573.988,570.113,0.0
55273.0,STARLINK-5291,PAYLOAD,2024-07-08 06:22:22,14.98330937,0.0002886,70.0002,140.8923,268.3967,91.6861,8.3523e-05,9.04e-06,0.0,0 STARLINK-5291,1 55273U 23010E   24190.26554212  .00000904  00000-0  83523-4 0  9999,2 55273  70.0002 140.8923 0002886 268.3967  91.6861 14.98330937 81192,6950.19,96.107,574.061,570.049,0.0
55273.0,STARLINK-5291,PAYLOAD,2024-07-08 14:23:03,14.98328473,0.0002955,69.9999,140.0503,269.599,90.483,2.2921e-05,1.8e-06,0.0,0 STARLINK-5291,1 55273U 23010E   24190.59934518  .00000180  00000-0  22921-4 0  9997,2 55273  69.9999 140.0503 0002955 269.5990  90.4830 14.98328473 81551,6950.198,96.107,574.116,570.009,0.0
55273.0,STARLINK-5291,PAYLOAD,2024-07-08 22:23:43,14.9832924,0.0002967,69.9998,139.2087,269.5543,90.5276,3.7367e-05,3.53e-06,0.0,0 STARLINK-5291,1 55273U 23010E   24190.93314455  .00000353  00000-0  37367-4 0  9999,2 55273  69.9998 139.2087 0002967 269.5543  90.5276 14.98329240 81608,6950.195,96.107,574.122,569.998,0.0
55273.0,STARLINK-5291,PAYLOAD,2024-07-09 06:24:23,14.98334174,0.0002981,69.9999,138.3672,269.7186,90.3632,4.4638e-05,4.4e-06,0.0,0 STARLINK-5291,1 55273U 23010E   24191.26694084  .00000440  00000-0  44638-4 0  9991,2 55273  69.9999 138.3672 0002981 269.7186  90.3632 14.98334174 81347,6950.18,96.107,574.117,569.973,0.0
55273.0,STARLINK-5291,PAYLOAD,2024-07-09 14:25:04,14.98329006,0.000291,70.0002,137.5253,269.9906,90.0919,2.1164e-06,-6.8e-07,0.0,0 STARLINK-5291,1 55273U 23010E   24191.60074509 -.00000068  00000-0  21164-5 0  9990,2 55273  70.0002 137.5253 0002910 269.9906  90.0919 14.98329006 81708,6950.196,96.107,574.083,570.038,0.0
55273.0,STARLINK-5291,PAYLOAD,2024-07-09 20:49:36,14.9832976,0.0002929,70.0001,136.8521,269.9536,90.1288,-1.0288e-05,-2.16e-06,0.0,0 STARLINK-5291,1 55273U 23010E   24191.86778526 -.00000216  00000-0 -10288-4 0  9998,2 55273  70.0001 136.8521 0002929 269.9536  90.1288 14.98329760 81433,6950.194,96.107,574.094,570.023,0.0
55273.0,STARLINK-5291,PAYLOAD,2024-07-09 22:25:44,14.98328679,0.0002942,70.0001,136.6838,270.0113,90.0709,-2.2849e-05,-3.66e-06,0.0,0 STARLINK-5291,1 55273U 23010E   24191.93454623 -.00000366  00000-0 -22849-4 0  9997,2 55273  70.0001 136.6838 0002942 270.0113  90.0709 14.98328679 81751,6950.197,96.107,574.107,570.017,0.0
55273.0,STARLINK-5291,PAYLOAD,2024-07-10 06:26:24,14.98330882,0.0002989,70.0001,135.8426,270.7587,89.3229,7.7931e-08,-9.2e-07,0.0,0 STARLINK-5291,1 55273U 23010E   24192.26834433 -.00000092  00000-0  77931-7 0  9995,2 55273  70.0001 135.8426 0002989 270.7587  89.3229 14.98330882 81801,6950.19,96.107,574.133,569.978,0.0
55273.0,STARLINK-5291,PAYLOAD,2024-07-10 20:51:37,14.98330545,0.0002989,70.0002,134.3279,270.9409,89.1408,4.1892e-05,4.07e-06,0.0,0 STARLINK-5291,1 55273U 23010E   24192.86918339  .00000407  00000-0  41892-4 0  9992,2 55273  70.0002 134.3279 0002989 270.9409  89.1408 14.98330545 81585,6950.191,96.107,574.134,569.979,0.0
55273.0,STARLINK-5291,PAYLOAD,2024-07-10 22:27:45,14.98330853,0.000299,70.0002,134.1596,270.932,89.1496,4.4407e-05,4.37e-06,0.0,0 STARLINK-5291,1 55273U 23010E   24192.93594311  .00000437  00000-0  44407-4 0  9998,2 55273  70.0002 134.1596 0002990 270.9320  89.1496 14.98330853 81904,6950.19,96.107,574.133,569.977,0.0
55273.0,STARLINK-5291,PAYLOAD,2024-07-11 06:28:25,14.98338025,0.0002983,70.0003,133.3181,271.0419,89.0398,7.6397e-05,8.19e-06,0.0,0 STARLINK-5291,1 55273U 23010E   24193.26973707  .00000819  00000-0  76397-4 0  9992,2 55273  70.0003 133.3181 0002983 271.0419  89.0398 14.98338025 81953,6950.168,96.106,574.106,569.96,0.0
55273.0,STARLINK-5291,PAYLOAD,2024-07-12 04:54:18,14.98330738,0.0002719,70.0009,130.9632,268.2829,91.8019,8.1623e-05,8.81e-06,0.0,0 STARLINK-5291,1 55273U 23010E   24194.20438110  .00000881  00000-0  81623-4 0  9998,2 55273  70.0009 130.9632 0002719 268.2829  91.8019 14.98330738 81788,6950.191,96.107,573.945,570.166,0.0
55273.0,STARLINK-5291,PAYLOAD,2024-07-12 12:54:58,14.98330295,0.0002711,70.0009,130.1218,268.4658,91.6191,3.9195e-05,3.75e-06,0.0,0 STARLINK-5291,1 55273U 23010E   24194.53818243  .00000375  00000-0  39195-4 0  9998,2 55273  70.0009 130.1218 0002711 268.4658  91.6191 14.98330295 82142,6950.192,96.107,573.941,570.173,0.0
55273.0,STARLINK-5291,PAYLOAD,2024-07-12 22:31:47,14.9833168,0.0002583,70.0011,129.1107,265.094,94.9924,-8.3789e-06,-1.93e-06,0.0,0 STARLINK-5291,1 55273U 23010E   24194.93874233 -.00000193  00000-0 -83789-5 0  9992,2 55273  70.0011 129.1107 0002583 265.0940  94.9924 14.98331680 82200,6950.188,96.107,573.848,570.257,0.0
55273.0,STARLINK-5291,PAYLOAD,2024-07-13 04:56:19,14.98332939,0.0002562,70.0011,128.4376,268.8436,91.2429,9.4926e-06,2e-07,0.0,0 STARLINK-5291,1 55273U 23010E   24195.20578093  .00000020  00000-0  94926-5 0  9990,2 55273  70.0011 128.4376 0002562 268.8436  91.2429 14.98332939 81935,6950.184,96.107,573.829,570.268,0.0
55273.0,STARLINK-5291,PAYLOAD,2024-07-13 22:33:48,14.98329793,0.0002574,70.0009,126.5859,269.3354,90.751,3.299e-06,-5.4e-07,0.0,0 STARLINK-5291,1 55273U 23010E   24195.94014320 -.00000054  00000-0  32990-5 0  9990,2 55273  70.0009 126.5859 0002574 269.3354  90.7510 14.98329793 82351,6950.194,96.107,573.848,570.27,0.0
55273.0,STARLINK-5291,PAYLOAD,2024-07-14 12:59:00,14.98330531,0.0002612,70.0007,125.0691,268.9132,91.1728,-1.3589e-07,-9.5e-07,0.0,0 STARLINK-5291,1 55273U 23010E   24196.54098191 -.00000095  00000-0 -13589-6 0  9995,2 55273  70.0007 125.0691 0002612 268.9132  91.1728 14.98330531 82133,6950.191,96.107,573.872,570.241,0.0
55273.0,STARLINK-5291,PAYLOAD,2024-07-14 22:35:48,14.98330594,0.0002779,70.0005,124.0595,268.8045,91.2796,7.2625e-05,7.74e-06,0.0,0 STARLINK-5291,1 55273U 23010E   24196.94153912  .00000774  00000-0  72625-4 0  9998,2 55273  70.0005 124.0595 0002779 268.8045  91.2796 14.98330594 82505,6950.191,96.107,573.988,570.125,0.0
